RADUGA 32               
1 23448U 94087A   12353.66625369 -.00000062  00000-0  10000-3 0  5760
2 23448  12.7342  37.5376 0006027 122.5776 237.4621  1.00273474 83529
RADUGA-1 4              
1 25642U 99010A   12353.80091258  .00000134  00000-0  10000-3 0  6624
2 25642  11.7121  51.2444 0002827 112.1541 247.8310  1.00282215 50560
RADUGA-1 5              
1 26477U 00049A   12354.82174451 -.00000174  00000-0  10000-3 0  5180
2 26477   9.3328  51.3685 0002608   6.1190  51.3435  1.00206420 45087
RADUGA-1 7              
1 28194U 04010A   12352.82484358  .00000131  00000-0  10000-3 0  6541
2 28194   6.8055  64.6541 0002357  62.2997 297.5925  1.00351067 31970
RADUGA-1M 1             
1 32373U 07058A   12354.70905919 -.00000042  00000-0  10000-3 0  4427
2 32373   0.0231  35.9170 0001743 224.6338 153.4007  1.00271529 19326
